[{"OBJECT_NAME":"ONEWEB-0291","OBJECT_ID":"2021-075G","EPOCH":"2026-06-16T06:02:57.071616","MEAN_MOTION":13.17648811,"ECCENTRICITY":0.0002163,"INCLINATION":87.9136,"RA_OF_ASC_NODE":6.0481,"ARG_OF_PERICENTER":93.268,"MEAN_ANOMALY":266.8699,"EPHEMERIS_TYPE":0,"CLASSIFICATION_TYPE":"U","NORAD_CAT_ID":49081,"ELEMENT_SET_NO":999,"REV_AT_EPOCH":23348,"BSTAR":2.4793e-05,"MEAN_MOTION_DOT":2.3e-07,"MEAN_MOTION_DDOT":0.0},{"OBJECT_NAME":"ONEWEB-0293","OBJECT_ID":"2021-075H","EPOCH":"2026-06-16T06:39:23.303520","MEAN_MOTION":13.17647961,"ECCENTRICITY":0.0001895,"INCLINATION":87.9131,"RA_OF_ASC_NODE":6.0464,"ARG_OF_PERICENTER":93.0322,"MEAN_ANOMALY":267.1027,"EPHEMERIS_TYPE":0,"CLASSIFICATION_TYPE":"U","NORAD_CAT_ID":49082,"ELEMENT_SET_NO":999,"REV_AT_EPOCH":23351,"BSTAR":3.0171e-05,"MEAN_MOTION_DOT":2.5e-07,"MEAN_MOTION_DDOT":0.0},{"OBJECT_NAME":"ONEWEB-0294","OBJECT_ID":"2021-075J","EPOCH":"2026-06-16T06:18:57.710016","MEAN_MOTION":13.1244393,"ECCENTRICITY":0.0001829,"INCLINATION":87.8947,"RA_OF_ASC_NODE":350.8427,"ARG_OF_PERICENTER":101.6124,"MEAN_ANOMALY":258.521,"EPHEMERIS_TYPE":0,"CLASSIFICATION_TYPE":"U","NORAD_CAT_ID":49083,"ELEMENT_SET_NO":999,"REV_AT_EPOCH":23445,"BSTAR":0.00092567,"MEAN_MOTION_DOT":3.46e-06,"MEAN_MOTION_DDOT":0.0},{"OBJECT_NAME":"ONEWEB-0295","OBJECT_ID":"2021-075K","EPOCH":"2026-06-16T06:38:10.735296","MEAN_MOTION":13.17648022,"ECCENTRICITY":0.0002192,"INCLINATION":87.9131,"RA_OF_ASC_NODE":6.0507,"ARG_OF_PERICENTER":89.8056,"MEAN_ANOMALY":270.3326,"EPHEMERIS_TYPE":0,"CLASSIFICATION_TYPE":"U","NORAD_CAT_ID":49084,"ELEMENT_SET_NO":999,"REV_AT_EPOCH":23347,"BSTAR":-3.1273000000000004e-05,"MEAN_MOTION_DOT":1e-08,"MEAN_MOTION_DDOT":0.0},{"OBJECT_NAME":"ONEWEB-0296","OBJECT_ID":"2021-075L","EPOCH":"2026-06-16T05:49:40.426464","MEAN_MOTION":13.12444512,"ECCENTRICITY":0.0002147,"INCLINATION":87.8951,"RA_OF_ASC_NODE":350.8541,"ARG_OF_PERICENTER":94.0134,"MEAN_ANOMALY":266.1241,"EPHEMERIS_TYPE":0,"CLASSIFICATION_TYPE":"U","NORAD_CAT_ID":49085,"ELEMENT_SET_NO":999,"REV_AT_EPOCH":23445,"BSTAR":-0.00056508,"MEAN_MOTION_DOT":-1.91e-06,"MEAN_MOTION_DDOT":0.0},{"OBJECT_NAME":"ONEWEB-0297","OBJECT_ID":"2021-075M","EPOCH":"2026-06-16T06:33:35.710272","MEAN_MOTION":13.12443298,"ECCENTRICITY":0.0001924,"INCLINATION":87.8936,"RA_OF_ASC_NODE":350.859,"ARG_OF_PERICENTER":90.175,"MEAN_ANOMALY":269.9599,"EPHEMERIS_TYPE":0,"CLASSIFICATION_TYPE":"U","NORAD_CAT_ID":49086,"ELEMENT_SET_NO":999,"REV_AT_EPOCH":23506,"BSTAR":0.0010942,"MEAN_MOTION_DOT":4.06e-06,"MEAN_MOTION_DDOT":0.0},{"OBJECT_NAME":"ONEWEB-0298","OBJECT_ID":"2021-075N","EPOCH":"2026-06-16T06:44:27.118752","MEAN_MOTION":13.17647906,"ECCENTRICITY":0.0001922,"INCLINATION":87.9131,"RA_OF_ASC_NODE":6.0479,"ARG_OF_PERICENTER":84.5978,"MEAN_ANOMALY":275.5373,"EPHEMERIS_TYPE":0,"CLASSIFICATION_TYPE":"U","NORAD_CAT_ID":49087,"ELEMENT_SET_NO":999,"REV_AT_EPOCH":23350,"BSTAR":-7.820600000000001e-06,"MEAN_MOTION_DOT":1e-07,"MEAN_MOTION_DDOT":0.0},{"OBJECT_NAME":"ONEWEB-0299","OBJECT_ID":"2021-075P","EPOCH":"2026-06-16T06:46:41.176128","MEAN_MOTION":13.1764998,"ECCENTRICITY":0.0002029,"INCLINATION":87.9142,"RA_OF_ASC_NODE":6.0277,"ARG_OF_PERICENTER":86.6778,"MEAN_ANOMALY":273.4585,"EPHEMERIS_TYPE":0,"CLASSIFICATION_TYPE":"U","NORAD_CAT_ID":49088,"ELEMENT_SET_NO":999,"REV_AT_EPOCH":23348,"BSTAR":0.00011132,"MEAN_MOTION_DOT":5.6e-07,"MEAN_MOTION_DDOT":0.0},{"OBJECT_NAME":"ONEWEB-0300","OBJECT_ID":"2021-075Q","EPOCH":"2026-06-16T06:22:36.601824","MEAN_MOTION":13.1244407,"ECCENTRICITY":0.0001839,"INCLINATION":87.8948,"RA_OF_ASC_NODE":350.8398,"ARG_OF_PERICENTER":78.5887,"MEAN_ANOMALY":281.5448,"EPHEMERIS_TYPE":0,"CLASSIFICATION_TYPE":"U","NORAD_CAT_ID":49089,"ELEMENT_SET_NO":999,"REV_AT_EPOCH":23508,"BSTAR":0.00092157,"MEAN_MOTION_DOT":3.44e-06,"MEAN_MOTION_DDOT":0.0},{"OBJECT_NAME":"ONEWEB-0301","OBJECT_ID":"2021-075R","EPOCH":"2026-06-16T05:59:25.483200","MEAN_MOTION":13.12446002,"ECCENTRICITY":0.000169,"INCLINATION":87.8946,"RA_OF_ASC_NODE":350.8413,"ARG_OF_PERICENTER":80.4836,"MEAN_ANOMALY":279.6484,"EPHEMERIS_TYPE":0,"CLASSIFICATION_TYPE":"U","NORAD_CAT_ID":49090,"ELEMENT_SET_NO":999,"REV_AT_EPOCH":23444,"BSTAR":-1.1588e-05,"MEAN_MOTION_DOT":9e-08,"MEAN_MOTION_DDOT":0.0},{"OBJECT_NAME":"ONEWEB-0302","OBJECT_ID":"2021-075S","EPOCH":"2026-06-16T05:39:55.106208","MEAN_MOTION":13.12443565,"ECCENTRICITY":0.0001948,"INCLINATION":87.8949,"RA_OF_ASC_NODE":350.8559,"ARG_OF_PERICENTER":99.9545,"MEAN_ANOMALY":260.1804,"EPHEMERIS_TYPE":0,"CLASSIFICATION_TYPE":"U","NORAD_CAT_ID":49091,"ELEMENT_SET_NO":999,"REV_AT_EPOCH":23442,"BSTAR":-0.0011311000000000001,"MEAN_MOTION_DOT":-3.94e-06,"MEAN_MOTION_DDOT":0.0},{"OBJECT_NAME":"ONEWEB-0304","OBJECT_ID":"2021-075T","EPOCH":"2026-06-16T06:10:13.978272","MEAN_MOTION":13.17649716,"ECCENTRICITY":0.0002018,"INCLINATION":87.9133,"RA_OF_ASC_NODE":6.0552,"ARG_OF_PERICENTER":88.1488,"MEAN_ANOMALY":271.9875,"EPHEMERIS_TYPE":0,"CLASSIFICATION_TYPE":"U","NORAD_CAT_ID":49092,"ELEMENT_SET_NO":999,"REV_AT_EPOCH":23345,"BSTAR":-8.967500000000002e-06,"MEAN_MOTION_DOT":9e-08,"MEAN_MOTION_DDOT":0.0},{"OBJECT_NAME":"ONEWEB-0305","OBJECT_ID":"2021-075U","EPOCH":"2026-06-16T06:00:30.945024","MEAN_MOTION":13.17649877,"ECCENTRICITY":0.0002244,"INCLINATION":87.9141,"RA_OF_ASC_NODE":6.0407,"ARG_OF_PERICENTER":86.3393,"MEAN_ANOMALY":273.7995,"EPHEMERIS_TYPE":0,"CLASSIFICATION_TYPE":"U","NORAD_CAT_ID":49093,"ELEMENT_SET_NO":999,"REV_AT_EPOCH":23348,"BSTAR":-3.2998e-05,"MEAN_MOTION_DOT":0.0,"MEAN_MOTION_DDOT":0.0},{"OBJECT_NAME":"ONEWEB-0308","OBJECT_ID":"2021-075V","EPOCH":"2026-06-16T05:30:09.296064","MEAN_MOTION":13.12443383,"ECCENTRICITY":0.0001785,"INCLINATION":87.8948,"RA_OF_ASC_NODE":350.849,"ARG_OF_PERICENTER":90.5229,"MEAN_ANOMALY":269.6104,"EPHEMERIS_TYPE":0,"CLASSIFICATION_TYPE":"U","NORAD_CAT_ID":49094,"ELEMENT_SET_NO":999,"REV_AT_EPOCH":23443,"BSTAR":-0.0011245,"MEAN_MOTION_DOT":-3.92e-06,"MEAN_MOTION_DDOT":0.0},{"OBJECT_NAME":"ONEWEB-0309","OBJECT_ID":"2021-075W","EPOCH":"2026-06-16T06:05:22.305696","MEAN_MOTION":13.17648894,"ECCENTRICITY":0.0001947,"INCLINATION":87.9133,"RA_OF_ASC_NODE":6.0486,"ARG_OF_PERICENTER":102.6,"MEAN_ANOMALY":257.5349,"EPHEMERIS_TYPE":0,"CLASSIFICATION_TYPE":"U","NORAD_CAT_ID":49095,"ELEMENT_SET_NO":999,"REV_AT_EPOCH":23345,"BSTAR":-6.1741e-05,"MEAN_MOTION_DOT":-1.1e-07,"MEAN_MOTION_DDOT":0.0},{"OBJECT_NAME":"ONEWEB-0310","OBJECT_ID":"2021-075X","EPOCH":"2026-06-16T05:52:06.484800","MEAN_MOTION":13.12445085,"ECCENTRICITY":0.0001806,"INCLINATION":87.8939,"RA_OF_ASC_NODE":350.868,"ARG_OF_PERICENTER":91.5283,"MEAN_ANOMALY":268.6052,"EPHEMERIS_TYPE":0,"CLASSIFICATION_TYPE":"U","NORAD_CAT_ID":49096,"ELEMENT_SET_NO":999,"REV_AT_EPOCH":23506,"BSTAR":-0.00048731,"MEAN_MOTION_DOT":-1.63e-06,"MEAN_MOTION_DDOT":0.0}]